GLOBALSTAR M045         
1 25676U 99019A   25096.85256956 -.00000053  00000+0  35783-3 0  9999
2 25676  51.9949 148.5888 0000631 107.0806  67.1972 12.27060160184638
GLOBALSTAR M019         
1 25677U 99019B   25097.22950341  .00000048  00000+0  14420-2 0  9998
2 25677  51.9872 272.8864 0001632 144.9073  27.3736 12.13877033176713
GLOBALSTAR M042         
1 25679U 99019D   25097.17695603 -.00000054  00000+0  35897-3 0  9991
2 25679  52.0006 251.4176 0003536 143.7426  28.4756 12.22081510176642
GLOBALSTAR M025         
1 25770U 99031A   25096.87884233 -.00000069  00000+0 -39779-4 0  9993
2 25770  51.9842 324.4646 0002043  48.7379 322.3477 11.22558231473707
GLOBALSTAR M049         
1 25771U 99031B   25096.89283971 -.00000055  00000+0  35562-3 0  9997
2 25771  51.9912 355.6108 0002148 249.6206 110.4359 11.12113524109490
GLOBALSTAR M047         
1 25772U 99031C   25096.97343035 -.00000061  00000+0  23503-3 0  9994
2 25772  51.9875 359.2015 0016587 138.7443 221.4619 11.31927074463049
GLOBALSTAR M052         
1 25773U 99031D   25096.44989019 -.00000103  00000+0 -12591-2 0  9997
2 25773  51.9834 106.2959 0002357  54.5286 115.8539 11.15058788470507
